{
  "type": "FeatureCollection",
  "features": [
    {
      "type": "Feature",
      "properties": {
        "norad_id": 30860,
        "name": "FENGYUN 1C DEB",
        "group": "fengyun-1c-debris",
        "lat": -11.140047424572451,
        "lon": 71.15601215311736,
        "alt_km": 839.6219082596945,
        "timestamp": "2025-12-21T18:54:58.775553+00:00",
        "meta_object_name": "FENGYUN 1C DEB",
        "meta_object_id": "1999-025AWW",
        "meta_epoch": "2025-12-21T10:32:49.077024",
        "meta_mean_motion": 14.25554906,
        "meta_eccentricity": 0.00402752,
        "meta_inclination": 98.9049,
        "meta_ra_of_asc_node": 69.0328,
        "meta_arg_of_pericenter": 163.3369,
        "meta_mean_anomaly": 196.9144,
        "meta_ephemeris_type": 0,
        "meta_classification_type": "U",
        "meta_norad_cat_id": 30860,
        "meta_element_set_no": 999,
        "meta_rev_at_epoch": 96640,
        "meta_bstar": 0.0012048538,
        "meta_mean_motion_dot": 2.83e-05,
        "meta_mean_motion_ddot": 0,
        "tle_line1": "1 30860U 99025AWW 25355.43945691  .00002830  00000+0  12049-2 0  9993",
        "tle_line2": "2 30860  98.9049  69.0328 0040275 163.3369 196.9144 14.25554906966405"
      },
      "geometry": {
        "type": "Point",
        "coordinates": [
          71.15601215311736,
          -11.140047424572451
        ]
      }
    },
    {
      "type": "Feature",
      "properties": {
        "norad_id": 30862,
        "name": "FENGYUN 1C DEB",
        "group": "fengyun-1c-debris",
        "lat": 2.7004997938390876,
        "lon": 86.58529886608441,
        "alt_km": 776.3648264206258,
        "timestamp": "2025-12-21T18:54:58.775577+00:00",
        "meta_object_name": "FENGYUN 1C DEB",
        "meta_object_id": "1999-025AWY",
        "meta_epoch": "2025-12-21T05:43:08.339808",
        "meta_mean_motion": 14.43230431,
        "meta_eccentricity": 0.0052107,
        "meta_inclination": 98.9568,
        "meta_ra_of_asc_node": 86.4337,
        "meta_arg_of_pericenter": 139.0646,
        "meta_mean_anomaly": 248.8173,
        "meta_ephemeris_type": 0,
        "meta_classification_type": "U",
        "meta_norad_cat_id": 30862,
        "meta_element_set_no": 999,
        "meta_rev_at_epoch": 96842,
        "meta_bstar": 0.0022042,
        "meta_mean_motion_dot": 7.497e-05,
        "meta_mean_motion_ddot": 0,
        "tle_line1": "1 30862U 99025AWY 25355.23829097  .00007497  00000+0  22042-2 0  9992",
        "tle_line2": "2 30862  98.9568  86.4337 0052107 139.0646 248.8173 14.43230431968428"
      },
      "geometry": {
        "type": "Point",
        "coordinates": [
          86.58529886608441,
          2.7004997938390876
        ]
      }
    },
    {
      "type": "Feature",
      "properties": {
        "norad_id": 30863,
        "name": "FENGYUN 1C DEB",
        "group": "fengyun-1c-debris",
        "lat": 29.223520644299214,
        "lon": 9.874459942930043,
        "alt_km": 1337.1834462009201,
        "timestamp": "2025-12-21T18:54:58.775588+00:00",
        "meta_object_name": "FENGYUN 1C DEB",
        "meta_object_id": "1999-025AWZ",
        "meta_epoch": "2025-12-21T07:26:52.161216",
        "meta_mean_motion": 12.40539027,
        "meta_eccentricity": 0.0877249,
        "meta_inclination": 99.1205,
        "meta_ra_of_asc_node": 184.3542,
        "meta_arg_of_pericenter": 232.3747,
        "meta_mean_anomaly": 314.6544,
        "meta_ephemeris_type": 0,
        "meta_classification_type": "U",
        "meta_norad_cat_id": 30863,
        "meta_element_set_no": 999,
        "meta_rev_at_epoch": 59846,
        "meta_bstar": 0.0027378,
        "meta_mean_motion_dot": 1.406e-05,
        "meta_mean_motion_ddot": 0,
        "tle_line1": "1 30863U 99025AWZ 25355.31032594  .00001406  00000+0  27378-2 0  9991",
        "tle_line2": "2 30863  99.1205 184.3542 0877249 232.3747 314.6544 12.40539027598462"
      },
      "geometry": {
        "type": "Point",
        "coordinates": [
          9.874459942930043,
          29.223520644299214
        ]
      }
    },
    {
      "type": "Feature",
      "properties": {
        "norad_id": 30867,
        "name": "FENGYUN 1C DEB",
        "group": "fengyun-1c-debris",
        "lat": 44.553650105180296,
        "lon": 89.57485437740809,
        "alt_km": 831.7385537652399,
        "timestamp": "2025-12-21T18:54:58.775599+00:00",
        "meta_object_name": "FENGYUN 1C DEB",
        "meta_object_id": "1999-025AXD",
        "meta_epoch": "2025-12-20T17:11:38.053824",
        "meta_mean_motion": 14.28078006,
        "meta_eccentricity": 0.00538965,
        "meta_inclination": 97.8775,
        "meta_ra_of_asc_node": 260.7732,
        "meta_arg_of_pericenter": 332.7008,
        "meta_mean_anomaly": 55.1129,
        "meta_ephemeris_type": 0,
        "meta_classification_type": "U",
        "meta_norad_cat_id": 30867,
        "meta_element_set_no": 999,
        "meta_rev_at_epoch": 96651,
        "meta_bstar": 0.001474724,
        "meta_mean_motion_dot": 3.685e-05,
        "meta_mean_motion_ddot": 0,
        "tle_line1": "1 30867U 99025AXD 25354.71641266  .00003685  00000+0  14747-2 0  9997",
        "tle_line2": "2 30867  97.8775 260.7732 0053896 332.7008  55.1129 14.28078006966516"
      },
      "geometry": {
        "type": "Point",
        "coordinates": [
          89.57485437740809,
          44.553650105180296
        ]
      }
    },
    {
      "type": "Feature",
      "properties": {
        "norad_id": 30868,
        "name": "FENGYUN 1C DEB",
        "group": "fengyun-1c-debris",
        "lat": 40.415461323525015,
        "lon": 60.21840145252651,
        "alt_km": 785.7285132897741,
        "timestamp": "2025-12-21T18:54:58.775609+00:00",
        "meta_object_name": "FENGYUN 1C DEB",
        "meta_object_id": "1999-025AXE",
        "meta_epoch": "2025-12-21T14:59:24.719424",
        "meta_mean_motion": 14.11124378,
        "meta_eccentricity": 0.01356165,
        "meta_inclination": 98.2631,
        "meta_ra_of_asc_node": 232.9596,
        "meta_arg_of_pericenter": 187.2936,
        "meta_mean_anomaly": 202.2698,
        "meta_ephemeris_type": 0,
        "meta_classification_type": "U",
        "meta_norad_cat_id": 30868,
        "meta_element_set_no": 999,
        "meta_rev_at_epoch": 96836,
        "meta_bstar": 8.6219281e-05,
        "meta_mean_motion_dot": 1.3e-06,
        "meta_mean_motion_ddot": 0,
        "tle_line1": "1 30868U 99025AXE 25355.62459166  .00000130  00000+0  86219-4 0  9992",
        "tle_line2": "2 30868  98.2631 232.9596 0135616 187.2936 202.2698 14.11124378968363"
      },
      "geometry": {
        "type": "Point",
        "coordinates": [
          60.21840145252651,
          40.415461323525015
        ]
      }
    },
    {
      "type": "Feature",
      "properties": {
        "norad_id": 30872,
        "name": "FENGYUN 1C DEB",
        "group": "fengyun-1c-debris",
        "lat": 28.602160146514123,
        "lon": -126.127564092685,
        "alt_km": 783.6690566652287,
        "timestamp": "2025-12-21T18:54:58.775619+00:00",
        "meta_object_name": "FENGYUN 1C DEB",
        "meta_object_id": "1999-025AXJ",
        "meta_epoch": "2025-12-20T02:19:23.094048",
        "meta_mean_motion": 14.3945895,
        "meta_eccentricity": 0.00405296,
        "meta_inclination": 99.1926,
        "meta_ra_of_asc_node": 46.9941,
        "meta_arg_of_pericenter": 6.8734,
        "meta_mean_anomaly": 23.8694,
        "meta_ephemeris_type": 0,
        "meta_classification_type": "U",
        "meta_norad_cat_id": 30872,
        "meta_element_set_no": 999,
        "meta_rev_at_epoch": 97842,
        "meta_bstar": 0.00056969079,
        "meta_mean_motion_dot": 1.742e-05,
        "meta_mean_motion_ddot": 0,
        "tle_line1": "1 30872U 99025AXJ 25354.09679507  .00001742  00000+0  56969-3 0  9998",
        "tle_line2": "2 30872  99.1926  46.9941 0040529   6.8734  23.8694 14.39458950978429"
      },
      "geometry": {
        "type": "Point",
        "coordinates": [
          -126.127564092685,
          28.602160146514123
        ]
      }
    },
    {
      "type": "Feature",
      "properties": {
        "norad_id": 30873,
        "name": "FENGYUN 1C DEB",
        "group": "fengyun-1c-debris",
        "lat": 44.81734530433339,
        "lon": -175.4969240903831,
        "alt_km": 871.5931427279247,
        "timestamp": "2025-12-21T18:54:58.775630+00:00",
        "meta_object_name": "FENGYUN 1C DEB",
        "meta_object_id": "1999-025AXK",
        "meta_epoch": "2025-12-21T06:25:47.080128",
        "meta_mean_motion": 14.19145479,
        "meta_eccentricity": 0.0107684,
        "meta_inclination": 98.6117,
        "meta_ra_of_asc_node": 355.337,
        "meta_arg_of_pericenter": 263.9159,
        "meta_mean_anomaly": 94.9738,
        "meta_ephemeris_type": 0,
        "meta_classification_type": "U",
        "meta_norad_cat_id": 30873,
        "meta_element_set_no": 999,
        "meta_rev_at_epoch": 97313,
        "meta_bstar": 0.00016633,
        "meta_mean_motion_dot": 3.25e-06,
        "meta_mean_motion_ddot": 0,
        "tle_line1": "1 30873U 99025AXK 25355.26790602  .00000325  00000+0  16633-3 0  9999",
        "tle_line2": "2 30873  98.6117 355.3370 0107684 263.9159  94.9738 14.19145479973130"
      },
      "geometry": {
        "type": "Point",
        "coordinates": [
          -175.4969240903831,
          44.81734530433339
        ]
      }
    }
  ]
}